CCSDS_OMM_VERS = 2.0
CREATION_DATE  = 
ORIGINATOR     = 

OBJECT_NAME    = ALOS-2
OBJECT_ID      = 2014-029A
CENTER_NAME    = EARTH
REF_FRAME      = TEME
TIME_SYSTEM    = UTC
MEAN_ELEMENT_THEORY = SGP/SGP4

EPOCH          = 2025-11-13T20:43:52.192128
MEAN_MOTION    = 14.79480923
ECCENTRICITY   = .0001391
INCLINATION    = 97.9229
RA_OF_ASC_NODE = 53.1199
ARG_OF_PERICENTER = 98.2368
MEAN_ANOMALY   = 261.9001

EPHEMERIS_TYPE = 0
CLASSIFICATION_TYPE = U
NORAD_CAT_ID   = 39766
ELEMENT_SET_NO = 999
REV_AT_EPOCH   = 61974
BSTAR          = .96678E-3
MEAN_MOTION_DOT = .7177E-4
MEAN_MOTION_DDOT = 0

CCSDS_OMM_VERS = 2.0
CREATION_DATE  = 
ORIGINATOR     = 

OBJECT_NAME    = YAOGAN-29
OBJECT_ID      = 2015-069A
CENTER_NAME    = EARTH
REF_FRAME      = TEME
TIME_SYSTEM    = UTC
MEAN_ELEMENT_THEORY = SGP/SGP4

EPOCH          = 2025-11-13T20:54:49.449024
MEAN_MOTION    = 14.82838186
ECCENTRICITY   = .0002105
INCLINATION    = 98.0249
RA_OF_ASC_NODE = 340.9462
ARG_OF_PERICENTER = 45.9262
MEAN_ANOMALY   = 314.2124

EPHEMERIS_TYPE = 0
CLASSIFICATION_TYPE = U
NORAD_CAT_ID   = 41038
ELEMENT_SET_NO = 999
REV_AT_EPOCH   = 53871
BSTAR          = .18504E-3
MEAN_MOTION_DOT = .1443E-4
MEAN_MOTION_DDOT = 0

CCSDS_OMM_VERS = 2.0
CREATION_DATE  = 
ORIGINATOR     = 

OBJECT_NAME    = ASTRO-H (HITOMI)
OBJECT_ID      = 2016-012A
CENTER_NAME    = EARTH
REF_FRAME      = TEME
TIME_SYSTEM    = UTC
MEAN_ELEMENT_THEORY = SGP/SGP4

EPOCH          = 2025-11-13T12:34:06.827232
MEAN_MOTION    = 15.09097469
ECCENTRICITY   = .0009893
INCLINATION    = 31.0011
RA_OF_ASC_NODE = 25.6793
ARG_OF_PERICENTER = 243.8834
MEAN_ANOMALY   = 116.0787

EPHEMERIS_TYPE = 0
CLASSIFICATION_TYPE = U
NORAD_CAT_ID   = 41337
ELEMENT_SET_NO = 999
REV_AT_EPOCH   = 53466
BSTAR          = .47144E-3
MEAN_MOTION_DOT = .7761E-4
MEAN_MOTION_DDOT = 0

CCSDS_OMM_VERS = 2.0
CREATION_DATE  = 
ORIGINATOR     = 

OBJECT_NAME    = HXMT (HUIYAN)
OBJECT_ID      = 2017-034A
CENTER_NAME    = EARTH
REF_FRAME      = TEME
TIME_SYSTEM    = UTC
MEAN_ELEMENT_THEORY = SGP/SGP4

EPOCH          = 2025-11-13T16:04:35.314752
MEAN_MOTION    = 15.15813506
ECCENTRICITY   = .0033772
INCLINATION    = 43.0146
RA_OF_ASC_NODE = 300.8955
ARG_OF_PERICENTER = 223.3165
MEAN_ANOMALY   = 136.5026

EPHEMERIS_TYPE = 0
CLASSIFICATION_TYPE = U
NORAD_CAT_ID   = 42758
ELEMENT_SET_NO = 999
REV_AT_EPOCH   = 46492
BSTAR          = .1088E-2
MEAN_MOTION_DOT = .21296E-3
MEAN_MOTION_DDOT = 0

CCSDS_OMM_VERS = 2.0
CREATION_DATE  = 
ORIGINATOR     = 

OBJECT_NAME    = CZ-2C R/B
OBJECT_ID      = 2018-054D
CENTER_NAME    = EARTH
REF_FRAME      = TEME
TIME_SYSTEM    = UTC
MEAN_ELEMENT_THEORY = SGP/SGP4

EPOCH          = 2025-11-13T11:59:11.601312
MEAN_MOTION    = 15.67813951
ECCENTRICITY   = .0024045
INCLINATION    = 35.1366
RA_OF_ASC_NODE = 18.2148
ARG_OF_PERICENTER = 218.1601
MEAN_ANOMALY   = 141.7428

EPHEMERIS_TYPE = 0
CLASSIFICATION_TYPE = U
NORAD_CAT_ID   = 43521
ELEMENT_SET_NO = 999
REV_AT_EPOCH   = 41045
BSTAR          = .10631E-2
MEAN_MOTION_DOT = .124848E-2
MEAN_MOTION_DDOT = 0

CCSDS_OMM_VERS = 2.0
CREATION_DATE  = 
ORIGINATOR     = 

OBJECT_NAME    = SAOCOM 1A
OBJECT_ID      = 2018-076A
CENTER_NAME    = EARTH
REF_FRAME      = TEME
TIME_SYSTEM    = UTC
MEAN_ELEMENT_THEORY = SGP/SGP4

EPOCH          = 2025-11-13T20:16:40.301760
MEAN_MOTION    = 14.82168738
ECCENTRICITY   = .0001357
INCLINATION    = 97.8863
RA_OF_ASC_NODE = 142.6862
ARG_OF_PERICENTER = 91.0781
MEAN_ANOMALY   = 269.0587

EPHEMERIS_TYPE = 0
CLASSIFICATION_TYPE = U
NORAD_CAT_ID   = 43641
ELEMENT_SET_NO = 999
REV_AT_EPOCH   = 38420
BSTAR          = .19296E-3
MEAN_MOTION_DOT = .1485E-4
MEAN_MOTION_DDOT = 0

CCSDS_OMM_VERS = 2.0
CREATION_DATE  = 
ORIGINATOR     = 

OBJECT_NAME    = H-2A R/B
OBJECT_ID      = 2018-084L
CENTER_NAME    = EARTH
REF_FRAME      = TEME
TIME_SYSTEM    = UTC
MEAN_ELEMENT_THEORY = SGP/SGP4

EPOCH          = 2025-11-13T10:55:10.441344
MEAN_MOTION    = 15.35990295
ECCENTRICITY   = .00291562
INCLINATION    = 98.8802
RA_OF_ASC_NODE = 145.4985
ARG_OF_PERICENTER = 65.7566
MEAN_ANOMALY   = 294.6714

EPHEMERIS_TYPE = 0
CLASSIFICATION_TYPE = U
NORAD_CAT_ID   = 43682
ELEMENT_SET_NO = 999
REV_AT_EPOCH   = 38790
BSTAR          = .10698745E-2
MEAN_MOTION_DOT = .38063E-3
MEAN_MOTION_DDOT = 0

CCSDS_OMM_VERS = 2.0
CREATION_DATE  = 
ORIGINATOR     = 

OBJECT_NAME    = SAOCOM 1B
OBJECT_ID      = 2020-059A
CENTER_NAME    = EARTH
REF_FRAME      = TEME
TIME_SYSTEM    = UTC
MEAN_ELEMENT_THEORY = SGP/SGP4

EPOCH          = 2025-11-13T19:24:27.866304
MEAN_MOTION    = 14.82175964
ECCENTRICITY   = .0001481
INCLINATION    = 97.8853
RA_OF_ASC_NODE = 141.7527
ARG_OF_PERICENTER = 86.4910
MEAN_ANOMALY   = 273.6473

EPHEMERIS_TYPE = 0
CLASSIFICATION_TYPE = U
NORAD_CAT_ID   = 46265
ELEMENT_SET_NO = 999
REV_AT_EPOCH   = 28158
BSTAR          = .19113E-3
MEAN_MOTION_DOT = .147E-4
MEAN_MOTION_DDOT = 0

CCSDS_OMM_VERS = 2.0
CREATION_DATE  = 
ORIGINATOR     = 

OBJECT_NAME    = CSS (TIANHE)
OBJECT_ID      = 2021-035A
CENTER_NAME    = EARTH
REF_FRAME      = TEME
TIME_SYSTEM    = UTC
MEAN_ELEMENT_THEORY = SGP/SGP4

EPOCH          = 2025-11-13T19:44:25.067040
MEAN_MOTION    = 15.61158145
ECCENTRICITY   = .0003947
INCLINATION    = 41.4650
RA_OF_ASC_NODE = 192.2060
ARG_OF_PERICENTER = 21.8267
MEAN_ANOMALY   = 338.2739

EPHEMERIS_TYPE = 0
CLASSIFICATION_TYPE = U
NORAD_CAT_ID   = 48274
ELEMENT_SET_NO = 999
REV_AT_EPOCH   = 25951
BSTAR          = .46539E-3
MEAN_MOTION_DOT = .40347E-3
MEAN_MOTION_DDOT = 0

CCSDS_OMM_VERS = 2.0
CREATION_DATE  = 
ORIGINATOR     = 

OBJECT_NAME    = COSMOS 2550
OBJECT_ID      = 2021-056A
CENTER_NAME    = EARTH
REF_FRAME      = TEME
TIME_SYSTEM    = UTC
MEAN_ELEMENT_THEORY = SGP/SGP4

EPOCH          = 2025-11-13T18:34:22.861344
MEAN_MOTION    = 15.33866991
ECCENTRICITY   = .0008311
INCLINATION    = 67.1444
RA_OF_ASC_NODE = 31.6034
ARG_OF_PERICENTER = 269.8361
MEAN_ANOMALY   = 90.1841

EPHEMERIS_TYPE = 0
CLASSIFICATION_TYPE = U
NORAD_CAT_ID   = 48865
ELEMENT_SET_NO = 999
REV_AT_EPOCH   = 24568
BSTAR          = .21914E-3
MEAN_MOTION_DOT = .7033E-4
MEAN_MOTION_DDOT = 0

CCSDS_OMM_VERS = 2.0
CREATION_DATE  = 
ORIGINATOR     = 

OBJECT_NAME    = CZ-2C R/B
OBJECT_ID      = 2022-058K
CENTER_NAME    = EARTH
REF_FRAME      = TEME
TIME_SYSTEM    = UTC
MEAN_ELEMENT_THEORY = SGP/SGP4

EPOCH          = 2025-11-13T08:41:17.314080
MEAN_MOTION    = 15.46504803
ECCENTRICITY   = .0048784
INCLINATION    = 50.1897
RA_OF_ASC_NODE = 193.1411
ARG_OF_PERICENTER = 76.5712
MEAN_ANOMALY   = 284.0686

EPHEMERIS_TYPE = 0
CLASSIFICATION_TYPE = U
NORAD_CAT_ID   = 52794
ELEMENT_SET_NO = 999
REV_AT_EPOCH   = 19208
BSTAR          = .93146E-3
MEAN_MOTION_DOT = .49171E-3
MEAN_MOTION_DDOT = 0

CCSDS_OMM_VERS = 2.0
CREATION_DATE  = 
ORIGINATOR     = 

OBJECT_NAME    = GSLV R/B
OBJECT_ID      = 2022-138AN
CENTER_NAME    = EARTH
REF_FRAME      = TEME
TIME_SYSTEM    = UTC
MEAN_ELEMENT_THEORY = SGP/SGP4

EPOCH          = 2025-11-13T05:22:16.142016
MEAN_MOTION    = 14.95905114
ECCENTRICITY   = .002008
INCLINATION    = 87.3846
RA_OF_ASC_NODE = 205.3525
ARG_OF_PERICENTER = 209.0604
MEAN_ANOMALY   = 150.9511

EPHEMERIS_TYPE = 0
CLASSIFICATION_TYPE = U
NORAD_CAT_ID   = 54149
ELEMENT_SET_NO = 999
REV_AT_EPOCH   = 16651
BSTAR          = .74771E-3
MEAN_MOTION_DOT = .8425E-4
MEAN_MOTION_DDOT = 0

CCSDS_OMM_VERS = 2.0
CREATION_DATE  = 
ORIGINATOR     = 

OBJECT_NAME    = XRISM
OBJECT_ID      = 2023-137A
CENTER_NAME    = EARTH
REF_FRAME      = TEME
TIME_SYSTEM    = UTC
MEAN_ELEMENT_THEORY = SGP/SGP4

EPOCH          = 2025-11-13T06:56:02.262048
MEAN_MOTION    = 15.09905789
ECCENTRICITY   = .0008067
INCLINATION    = 31.0031
RA_OF_ASC_NODE = 315.6331
ARG_OF_PERICENTER = 305.8202
MEAN_ANOMALY   = 54.1686

EPHEMERIS_TYPE = 0
CLASSIFICATION_TYPE = U
NORAD_CAT_ID   = 57800
ELEMENT_SET_NO = 999
REV_AT_EPOCH   = 12017
BSTAR          = .86132E-3
MEAN_MOTION_DOT = .14424E-3
MEAN_MOTION_DDOT = 0

CCSDS_OMM_VERS = 2.0
CREATION_DATE  = 
ORIGINATOR     = 

OBJECT_NAME    = ACS3
OBJECT_ID      = 2024-077B
CENTER_NAME    = EARTH
REF_FRAME      = TEME
TIME_SYSTEM    = UTC
MEAN_ELEMENT_THEORY = SGP/SGP4

EPOCH          = 2025-11-13T11:39:00.313920
MEAN_MOTION    = 13.83614992
ECCENTRICITY   = .0056798
INCLINATION    = 97.3104
RA_OF_ASC_NODE = 279.5884
ARG_OF_PERICENTER = 25.0838
MEAN_ANOMALY   = 335.3063

EPHEMERIS_TYPE = 0
CLASSIFICATION_TYPE = U
NORAD_CAT_ID   = 59588
ELEMENT_SET_NO = 999
REV_AT_EPOCH   = 7809
BSTAR          = .25994E-1
MEAN_MOTION_DOT = .29134E-3
MEAN_MOTION_DDOT = 0

